{
    "links": {
        "self": "http://www.neowsapp.com/rest/v1/neo/3643995?api_key=iIulBulltgU6a56xZRHN4H3l9WmuAYTsLGpBGhQ2"
    },
    "id": "3643995",
    "neo_reference_id": "3643995",
    "name": "(2013 LY28)",
    "designation": "2013 LY28",
    "nasa_jpl_url": "http://ssd.jpl.nasa.gov/sbdb.cgi?sstr=3643995",
    "absolute_magnitude_h": 24.5,
    "estimated_diameter": {
        "kilometers": {
            "estimated_diameter_min": 0.0334622374,
            "estimated_diameter_max": 0.0748238376
        },
        "meters": {
            "estimated_diameter_min": 33.4622374455,
            "estimated_diameter_max": 74.8238376074
        },
        "miles": {
            "estimated_diameter_min": 0.0207924639,
            "estimated_diameter_max": 0.0464933628
        },
        "feet": {
            "estimated_diameter_min": 109.7842471007,
            "estimated_diameter_max": 245.4850393757
        }
    },
    "is_potentially_hazardous_asteroid": false,
    "close_approach_data": [
        {
            "close_approach_date": "2013-06-18",
            "close_approach_date_full": "2013-Jun-18 07:22",
            "epoch_date_close_approach": 1371540120000,
            "relative_velocity": {
                "kilometers_per_second": "19.3898624741",
                "kilometers_per_hour": "69803.5049066009",
                "miles_per_hour": "43373.1833682154"
            },
            "miss_distance": {
                "astronomical": "0.0284112244",
                "lunar": "11.0519662916",
                "kilometers": "4250258.654332028",
                "miles": "2640988.2635488664"
            },
            "orbiting_body": "Earth"
        }
    ],
    "orbital_data": {
        "orbit_id": "6",
        "orbit_determination_date": "2017-04-06 08:45:35",
        "first_observation_date": "2013-06-12",
        "last_observation_date": "2013-06-17",
        "data_arc_in_days": 5,
        "observations_used": 29,
        "orbit_uncertainty": "8",
        "minimum_orbit_intersection": ".0159114",
        "jupiter_tisserand_invariant": "3.479",
        "epoch_osculation": "2456456.5",
        "eccentricity": ".6592612147921882",
        "semi_major_axis": "2.020625665430901",
        "inclination": "15.41740603207077",
        "ascending_node_longitude": "262.6761111056466",
        "orbital_period": "1049.124971529803",
        "perihelion_distance": ".6885055345986516",
        "perihelion_argument": "82.8245555142867",
        "aphelion_distance": "3.352745796263152",
        "perihelion_time": "2456509.683053282883",
        "mean_anomaly": "341.7506019765025",
        "mean_motion": ".3431431047485779",
        "equinox": "J2000",
        "orbit_class": {
            "orbit_class_type": "APO",
            "orbit_class_description": "Near-Earth asteroid orbits which cross the Earth’s orbit similar to that of 1862 Apollo",
            "orbit_class_range": "a (semi-major axis) > 1.0 AU; q (perihelion) < 1.017 AU"
        }
    },
    "is_sentry_object": false
}